start=new Date('2021-12-21T00:00:00.000Z').valueOf();
sats=[{"BSTAR":"0.00041152000000","GP_ID":"192112571","NORAD_CAT_ID":"47670","PERIAPSIS":"541.846","ECCENTRICITY":"0.00076790","ELEMENT_SET_NO":"999","OBJECT_ID":"2021-012BC","APOAPSIS":"552.482","MEAN_MOTION_DDOT":"0.0000000000000","MEAN_MOTION_DOT":"0.00005857","EPOCH":"2021-12-20T18:03:12.052512","OBJECT_NAME":"STARLINK-2062","LAUNCH_DATE":"2021-02-16","REF_FRAME":"TEME","RCS_SIZE":"LARGE","OBJECT_TYPE":"PAYLOAD","TLE_LINE1":"1 47670U 21012BC  21354.75222283  .00005857  00000-0  41152-3 0  9997","ARG_OF_PERICENTER":"126.3658","RA_OF_ASC_NODE":"124.6547","PERIOD":"95.591","MEAN_ANOMALY":"233.8041","MEAN_MOTION":"15.06416032","TIME_SYSTEM":"UTC","CENTER_NAME":"EARTH","TLE_LINE2":"2 47670  53.0535 124.6547 0007679 126.3658 233.8041 15.06416032 48153","COUNTRY_CODE":"US","CLASSIFICATION_TYPE":"U","SEMIMAJOR_AXIS":"6925.299","FILE":"3245895","DECAY_DATE":null,"MEAN_ELEMENT_THEORY":"SGP4","EPHEMERIS_TYPE":"0","SITE":"AFETR","INCLINATION":"53.0535","REV_AT_EPOCH":"4815"},{"APOAPSIS":"548.495","MEAN_MOTION_DDOT":"0.0000000000000","MEAN_MOTION_DOT":"0.00002314","EPOCH":"2021-12-20T16:01:06.443616","LAUNCH_DATE":"2021-02-16","OBJECT_NAME":"STARLINK-2064","GP_ID":"192081185","BSTAR":"0.00017417000000","NORAD_CAT_ID":"47671","PERIAPSIS":"545.886","ECCENTRICITY":"0.00018840","ELEMENT_SET_NO":"999","OBJECT_ID":"2021-012BD","RCS_SIZE":"LARGE","TLE_LINE1":"1 47671U 21012BD  21354.66743569  .00002314  00000-0  17417-3 0  9995","OBJECT_TYPE":"PAYLOAD","ARG_OF_PERICENTER":"102.6103","RA_OF_ASC_NODE":"125.0569","PERIOD":"95.592","REF_FRAME":"TEME","TIME_SYSTEM":"UTC","CENTER_NAME":"EARTH","TLE_LINE2":"2 47671  53.0543 125.0569 0001884 102.6103 257.5096 15.06407543 47638","COUNTRY_CODE":"US","MEAN_ANOMALY":"257.5096","MEAN_MOTION":"15.06407543","MEAN_ELEMENT_THEORY":"SGP4","EPHEMERIS_TYPE":"0","SITE":"AFETR","INCLINATION":"53.0543","REV_AT_EPOCH":"4763","CLASSIFICATION_TYPE":"U","SEMIMAJOR_AXIS":"6925.325","FILE":"3245461","DECAY_DATE":null},{"RCS_SIZE":"LARGE","PERIOD":"95.591","RA_OF_ASC_NODE":"114.2395","ARG_OF_PERICENTER":"108.5452","OBJECT_TYPE":"PAYLOAD","TLE_LINE1":"1 47672U 21012BE  21354.84529137  .00004233  00000-0  30282-3 0  9996","REF_FRAME":"TEME","APOAPSIS":"548.894","LAUNCH_DATE":"2021-02-16","OBJECT_NAME":"STARLINK-2065","EPOCH":"2021-12-20T20:17:13.174368","MEAN_MOTION_DOT":"0.00004233","MEAN_MOTION_DDOT":"0.0000000000000","GP_ID":"192113074","BSTAR":"0.00030282000000","NORAD_CAT_ID":"47672","ELEMENT_SET_NO":"999","OBJECT_ID":"2021-012BE","ECCENTRICITY":"0.00024930","PERIAPSIS":"545.441","INCLINATION":"53.0544","SITE":"AFETR","EPHEMERIS_TYPE":"0","MEAN_ELEMENT_THEORY":"SGP4","REV_AT_EPOCH":"4829","SEMIMAJOR_AXIS":"6925.303","CLASSIFICATION_TYPE":"U","DECAY_DATE":null,"FILE":"3245895","CENTER_NAME":"EARTH","TIME_SYSTEM":"UTC","COUNTRY_CODE":"US","TLE_LINE2":"2 47672  53.0544 114.2395 0002493 108.5452 251.5808 15.06414919 48299","MEAN_ANOMALY":"251.5808","MEAN_MOTION":"15.06414919"},{"APOAPSIS":"548.183","EPOCH":"2021-12-20T19:44:02.170176","OBJECT_NAME":"STARLINK-2066","LAUNCH_DATE":"2021-02-16","MEAN_MOTION_DDOT":"0.0000000000000","MEAN_MOTION_DOT":"0.00001576","GP_ID":"192111822","BSTAR":"0.00012468000000","NORAD_CAT_ID":"47673","OBJECT_ID":"2021-012BF","ELEMENT_SET_NO":"999","PERIAPSIS":"546.227","ECCENTRICITY":"0.00014120","RCS_SIZE":"LARGE","RA_OF_ASC_NODE":"124.3465","PERIOD":"95.592","OBJECT_TYPE":"PAYLOAD","TLE_LINE1":"1 47673U 21012BF  21354.82224734  .00001576  00000-0  12468-3 0  9993","ARG_OF_PERICENTER":"101.3970","REF_FRAME":"TEME","CENTER_NAME":"EARTH","TIME_SYSTEM":"UTC","COUNTRY_CODE":"US","TLE_LINE2":"2 47673  53.0544 124.3465 0001412 101.3970 258.7177 15.06402687 48169","MEAN_ANOMALY":"258.7177","MEAN_MOTION":"15.06402687","EPHEMERIS_TYPE":"0","SITE":"AFETR","INCLINATION":"53.0544","MEAN_ELEMENT_THEORY":"SGP4","REV_AT_EPOCH":"4816","SEMIMAJOR_AXIS":"6925.340","CLASSIFICATION_TYPE":"U","DECAY_DATE":null,"FILE":"3245895"},{"EPOCH":"2021-12-20T20:05:15.849600","LAUNCH_DATE":"2021-02-16","OBJECT_NAME":"STARLINK-2067","MEAN_MOTION_DDOT":"0.0000000000000","MEAN_MOTION_DOT":"0.00006420","APOAPSIS":"548.435","OBJECT_ID":"2021-012BG","ELEMENT_SET_NO":"999","PERIAPSIS":"545.920","ECCENTRICITY":"0.00018160","GP_ID":"192112072","NORAD_CAT_ID":"47674","BSTAR":"0.00044938000000","RA_OF_ASC_NODE":"124.2735","PERIOD":"95.591","OBJECT_TYPE":"PAYLOAD","TLE_LINE1":"1 47674U 21012BG  21354.83698900  .00006420  00000-0  44938-3 0  9995","ARG_OF_PERICENTER":"95.2520","RCS_SIZE":"LARGE","REF_FRAME":"TEME","COUNTRY_CODE":"US","TLE_LINE2":"2 47674  53.0534 124.2735 0001816  95.2520 264.8677 15.06411877 48173","CENTER_NAME":"EARTH","TIME_SYSTEM":"UTC","MEAN_MOTION":"15.06411877","MEAN_ANOMALY":"264.8677","REV_AT_EPOCH":"4817","SITE":"AFETR","EPHEMERIS_TYPE":"0","INCLINATION":"53.0534","MEAN_ELEMENT_THEORY":"SGP4","DECAY_DATE":null,"FILE":"3245895","SEMIMAJOR_AXIS":"6925.312","CLASSIFICATION_TYPE":"U"},{"REV_AT_EPOCH":"4817","INCLINATION":"53.0543","SITE":"AFETR","EPHEMERIS_TYPE":"0","MEAN_ELEMENT_THEORY":"SGP4","DECAY_DATE":null,"FILE":"3245895","SEMIMAJOR_AXIS":"6925.313","CLASSIFICATION_TYPE":"U","COUNTRY_CODE":"US","TLE_LINE2":"2 47675  53.0543 124.3153 0001998  97.5492 262.5724 15.06411545 48173","CENTER_NAME":"EARTH","TIME_SYSTEM":"UTC","MEAN_MOTION":"15.06411545","MEAN_ANOMALY":"262.5724","PERIOD":"95.591","RA_OF_ASC_NODE":"124.3153","ARG_OF_PERICENTER":"97.5492","OBJECT_TYPE":"PAYLOAD","TLE_LINE1":"1 47675U 21012BH  21354.82961935  .00003456  00000-0  25075-3 0  9993","RCS_SIZE":"LARGE","REF_FRAME":"TEME","OBJECT_NAME":"STARLINK-2078","LAUNCH_DATE":"2021-02-16","EPOCH":"2021-12-20T19:54:39.111840","MEAN_MOTION_DOT":"0.00003456","MEAN_MOTION_DDOT":"0.0000000000000","APOAPSIS":"548.562","OBJECT_ID":"2021-012BH","ELEMENT_SET_NO":"999","ECCENTRICITY":"0.00019980","PERIAPSIS":"545.794","BSTAR":"0.00025075000000","GP_ID":"192113323","NORAD_CAT_ID":"47675"},{"MEAN_ANOMALY":"169.9596","MEAN_MOTION":"15.32869920","COUNTRY_CODE":"US","TLE_LINE2":"2 47676  53.0543  15.1100 0001817  40.8415 169.9596 15.32869920  3675","CENTER_NAME":"EARTH","TIME_SYSTEM":"UTC","DECAY_DATE":null,"FILE":"3245895","SEMIMAJOR_AXIS":"6845.392","CLASSIFICATION_TYPE":"U","REV_AT_EPOCH":"367","INCLINATION":"53.0543","SITE":"AFETR","EPHEMERIS_TYPE":"0","MEAN_ELEMENT_THEORY":"SGP4","ELEMENT_SET_NO":"999","OBJECT_ID":"2021-012BJ","ECCENTRICITY":"0.00018170","PERIAPSIS":"466.013","NORAD_CAT_ID":"47676","GP_ID":"192113574","BSTAR":"-0.03082800000000","LAUNCH_DATE":"2021-02-16","OBJECT_NAME":"STARLINK-2083","EPOCH":"2021-12-20T22:00:01.999584","MEAN_MOTION_DOT":"-0.00910417","MEAN_MOTION_DDOT":"0.0000000000000","APOAPSIS":"468.501","REF_FRAME":"TEME","PERIOD":"93.941","RA_OF_ASC_NODE":"15.1100","ARG_OF_PERICENTER":"40.8415","TLE_LINE1":"1 47676U 21012BJ  21354.91668981 -.00910417  00000-0 -30828-1 0  9995","OBJECT_TYPE":"PAYLOAD","RCS_SIZE":"LARGE"},{"MEAN_ANOMALY":"262.4293","MEAN_MOTION":"15.06415099","COUNTRY_CODE":"US","TLE_LINE2":"2 47677  53.0542 144.3804 0001980  97.6921 262.4293 15.06415099 47883","CENTER_NAME":"EARTH","TIME_SYSTEM":"UTC","DECAY_DATE":null,"FILE":"3245895","SEMIMAJOR_AXIS":"6925.302","CLASSIFICATION_TYPE":"U","REV_AT_EPOCH":"4788","SITE":"AFETR","EPHEMERIS_TYPE":"0","INCLINATION":"53.0542","MEAN_ELEMENT_THEORY":"SGP4","OBJECT_ID":"2021-012BK","ELEMENT_SET_NO":"999","PERIAPSIS":"545.796","ECCENTRICITY":"0.00019800","GP_ID":"192112322","BSTAR":"0.00028550000000","NORAD_CAT_ID":"47677","EPOCH":"2021-12-20T19:36:04.455072","LAUNCH_DATE":"2021-02-16","OBJECT_NAME":"STARLINK-2090","MEAN_MOTION_DDOT":"0.0000000000000","MEAN_MOTION_DOT":"0.00003975","APOAPSIS":"548.538","REF_FRAME":"TEME","RA_OF_ASC_NODE":"144.3804","PERIOD":"95.591","TLE_LINE1":"1 47677U 21012BK  21354.81671823  .00003975  00000-0  28550-3 0  9995","OBJECT_TYPE":"PAYLOAD","ARG_OF_PERICENTER":"97.6921","RCS_SIZE":"LARGE"},{"REV_AT_EPOCH":"4790","MEAN_ELEMENT_THEORY":"SGP4","EPHEMERIS_TYPE":"0","SITE":"AFETR","INCLINATION":"53.0548","FILE":"3245895","DECAY_DATE":null,"CLASSIFICATION_TYPE":"U","SEMIMAJOR_AXIS":"6925.334","TLE_LINE2":"2 47679  53.0548 144.2590 0001538  85.3495 274.7670 15.06404691 47905","COUNTRY_CODE":"US","TIME_SYSTEM":"UTC","CENTER_NAME":"EARTH","MEAN_ANOMALY":"274.7670","MEAN_MOTION":"15.06404691","TLE_LINE1":"1 47679U 21012BM  21354.84526567 -.00001633  00000-0 -90725-4 0  9999","OBJECT_TYPE":"PAYLOAD","ARG_OF_PERICENTER":"85.3495","RA_OF_ASC_NODE":"144.2590","PERIOD":"95.592","RCS_SIZE":"LARGE","REF_FRAME":"TEME","MEAN_MOTION_DDOT":"0.0000000000000","MEAN_MOTION_DOT":"-0.00001633","EPOCH":"2021-12-20T20:17:10.953888","LAUNCH_DATE":"2021-02-16","OBJECT_NAME":"STARLINK-2095","APOAPSIS":"548.264","PERIAPSIS":"546.134","ECCENTRICITY":"0.00015380","ELEMENT_SET_NO":"999","OBJECT_ID":"2021-012BM","NORAD_CAT_ID":"47679","GP_ID":"192112572","BSTAR":"-0.00009072500000"},{"MEAN_MOTION_DOT":"0.00006690","MEAN_MOTION_DDOT":"0.0000000000000","LAUNCH_DATE":"2021-03-04","OBJECT_NAME":"STARLINK-2068","EPOCH":"2021-12-20T22:21:14.227488","APOAPSIS":"548.761","ECCENTRICITY":"0.00023120","PERIAPSIS":"545.558","ELEMENT_SET_NO":"999","OBJECT_ID":"2021-017A","GP_ID":"192113328","NORAD_CAT_ID":"47722","BSTAR":"0.00046739000000","ARG_OF_PERICENTER":"61.0738","TLE_LINE1":"1 47722U 21017A   21354.93141467  .00006690  00000-0  46739-3 0  9996","OBJECT_TYPE":"PAYLOAD","PERIOD":"95.591","RA_OF_ASC_NODE":"268.8695","RCS_SIZE":"LARGE","REF_FRAME":"TEME","TLE_LINE2":"2 47722  53.0558 268.8695 0002312  61.0738 299.0482 15.06417623 45915","COUNTRY_CODE":"US","TIME_SYSTEM":"UTC","CENTER_NAME":"EARTH","MEAN_MOTION":"15.06417623","MEAN_ANOMALY":"299.0482","REV_AT_EPOCH":"4591","MEAN_ELEMENT_THEORY":"SGP4","INCLINATION":"53.0558","EPHEMERIS_TYPE":"0","SITE":"AFETR","FILE":"3245895","DECAY_DATE":null,"CLASSIFICATION_TYPE":"U","SEMIMAJOR_AXIS":"6925.295"}];
